[{"OBJECT_NAME":"STARLINK-31276","OBJECT_ID":"2024-041B","EPOCH":"2026-03-09T02:00:22.435200","MEAN_MOTION":15.27576361,"ECCENTRICITY":0.00018007,"INCLINATION":42.9993,"RA_OF_ASC_NODE":313.7188,"ARG_OF_PERICENTER":259.0315,"MEAN_ANOMALY":101.0335,"EPHEMERIS_TYPE":0,"CLASSIFICATION_TYPE":"U","NORAD_CAT_ID":59075,"ELEMENT_SET_NO":999,"REV_AT_EPOCH":11423,"BSTAR":-3.7168303e-5,"MEAN_MOTION_DOT":-1.285e-5,"MEAN_MOTION_DDOT":0},{"OBJECT_NAME":"NUSAT-44 (MARIA MITCHELL)","OBJECT_ID":"2024-043AA","EPOCH":"2026-03-09T22:12:18.524160","MEAN_MOTION":15.29764305,"ECCENTRICITY":0.0007331,"INCLINATION":97.5299,"RA_OF_ASC_NODE":207.7691,"ARG_OF_PERICENTER":214.9017,"MEAN_ANOMALY":145.1743,"EPHEMERIS_TYPE":0,"CLASSIFICATION_TYPE":"U","NORAD_CAT_ID":59122,"ELEMENT_SET_NO":999,"REV_AT_EPOCH":11209,"BSTAR":0.00061063193,"MEAN_MOTION_DOT":0.00017562,"MEAN_MOTION_DDOT":0}]
